GLOBAL-2                
1 43812U 18099BG  26068.69955396  .00003970  00000+0  26145-3 0  9998
2 43812  97.3697 109.3280 0007454 127.1924 232.9986 15.08046936396919
STARLINK-34845          
1 65289U 25184S   26068.88900748  .00003407  00000+0  24019-3 0  9998
2 65289  97.6041 122.8987 0001048  90.1053 270.0294 15.05649466 31337
